[{"OBJECT_NAME":"STARLINK-5746","OBJECT_ID":"2023-083BC","EPOCH":"2026-03-09T23:00:04.749984","MEAN_MOTION":15.0380119,"ECCENTRICITY":0.00024094,"INCLINATION":43.0019,"RA_OF_ASC_NODE":67.0685,"ARG_OF_PERICENTER":315.3692,"MEAN_ANOMALY":44.6957,"EPHEMERIS_TYPE":0,"CLASSIFICATION_TYPE":"U","NORAD_CAT_ID":56926,"ELEMENT_SET_NO":999,"REV_AT_EPOCH":15186,"BSTAR":0.0075848224,"MEAN_MOTION_DOT":0.00107397,"MEAN_MOTION_DDOT":0},{"OBJECT_NAME":"UNKNOWN","OBJECT_ID":"","EPOCH":"2026-03-08T12:59:39.172704","MEAN_MOTION":15.0131728,"ECCENTRICITY":0.00204305,"INCLINATION":86.3534,"RA_OF_ASC_NODE":358.469,"ARG_OF_PERICENTER":121.5673,"MEAN_ANOMALY":238.7558,"EPHEMERIS_TYPE":0,"CLASSIFICATION_TYPE":"U","NORAD_CAT_ID":270086,"ELEMENT_SET_NO":999,"REV_AT_EPOCH":9441,"BSTAR":0.0053525659,"MEAN_MOTION_DOT":0.00069778,"MEAN_MOTION_DDOT":0}]
